NORAD_CAT_ID,OBJECT_NAME,OBJECT_TYPE,EPOCH,MEAN_MOTION,ECCENTRICITY,INCLINATION,RA_OF_ASC_NODE,ARG_OF_PERICENTER,MEAN_ANOMALY,BSTAR,MEAN_MOTION_DOT,MEAN_MOTION_DDOT,TLE_LINE0,TLE_LINE1,TLE_LINE2,SEMIMAJOR_AXIS,PERIOD,APOGEE,PERIGEE,DECAYED
55412.0,STARLINK-5033,PAYLOAD,2023-02-17 18:12:31,15.69926379,0.0003513,69.9985,41.7072,281.6544,78.4257,0.00013797,0.00016411,0.0,0 STARLINK-5033,1 55412U 23014X   23048.75869614  .00016411  00000-0  13797-3 0  9993,2 55412  69.9985  41.7072 0003513 281.6544  78.4257 15.69926379  2886,6737.245,91.724,361.476,356.743,0.0
55412.0,STARLINK-5033,PAYLOAD,2023-02-17 21:16:01,15.69922938,0.0003648,69.9986,41.348,286.2277,73.8517,0.00030829,0.0003702,0.0,0 STARLINK-5033,1 55412U 23014X   23048.88613170  .00037020  00000-0  30829-3 0  9995,2 55412  69.9986  41.3480 0003648 286.2277  73.8517 15.69922938  3841,6737.254,91.724,361.577,356.662,0.0
55412.0,STARLINK-5033,PAYLOAD,2023-02-18 01:51:16,15.69950403,0.0003507,69.9984,40.8107,283.1246,76.9558,0.00043083,0.0005197,0.0,0 STARLINK-5033,1 55412U 23014X   23049.07727926  .00051970  00000-0  43083-3 0  9998,2 55412  69.9984  40.8107 0003507 283.1246  76.9558 15.69950403  2931,6737.176,91.723,361.404,356.678,0.0
55412.0,STARLINK-5033,PAYLOAD,2023-02-18 11:01:47,15.69943955,0.0003383,69.9985,39.7354,276.2194,83.8616,0.00038464,0.00046331,0.0,0 STARLINK-5033,1 55412U 23014X   23049.45957679  .00046331  00000-0  38464-3 0  9992,2 55412  69.9985  39.7354 0003383 276.2194  83.8616 15.69943955  2992,6737.194,91.723,361.339,356.78,0.0
55412.0,STARLINK-5033,PAYLOAD,2023-02-18 14:05:17,15.69930011,0.000334,69.9985,39.3772,276.9484,83.1331,0.00025945,0.00031107,0.0,0 STARLINK-5033,1 55412U 23014X   23049.58700971  .00031107  00000-0  25945-3 0  9992,2 55412  69.9985  39.3772 0003340 276.9484  83.1331 15.69930011  3957,6737.234,91.724,361.349,356.849,0.0
55412.0,STARLINK-5033,PAYLOAD,2023-02-18 18:40:32,15.6995592,0.0003422,69.9985,38.8401,276.0997,83.9809,0.00021568,0.00025835,0.0,0 STARLINK-5033,1 55412U 23014X   23049.77815607  .00025835  00000-0  21568-3 0  9994,2 55412  69.9985  38.8401 0003422 276.0997  83.9809 15.69955920  3045,6737.16,91.722,361.331,356.72,0.0
55412.0,STARLINK-5033,PAYLOAD,2023-02-19 02:19:18,15.69929843,0.0003372,69.9985,37.9436,268.0368,92.0441,0.0004571,0.00055125,0.0,0 STARLINK-5033,1 55412U 23014X   23050.09674359  .00055125  00000-0  45710-3 0  9998,2 55412  69.9985  37.9436 0003372 268.0368  92.0441 15.69929843  3093,6737.235,91.724,361.372,356.828,0.0
55412.0,STARLINK-5033,PAYLOAD,2023-02-19 09:58:04,15.69934829,0.000337,69.9986,37.0478,269.0401,91.0408,0.00033634,0.00040442,0.0,0 STARLINK-5033,1 55412U 23014X   23050.41532698  .00040442  00000-0  33634-3 0  9991,2 55412  69.9986  37.0478 0003370 269.0401  91.0408 15.69934829  3146,6737.22,91.724,361.356,356.815,0.0
55412.0,STARLINK-5033,PAYLOAD,2023-02-19 14:33:19,15.69926196,0.0003343,69.9987,36.5101,268.3761,91.7052,0.00033037,0.00039703,0.0,0 STARLINK-5033,1 55412U 23014X   23050.60647743  .00039703  00000-0  33037-3 0  9995,2 55412  69.9987  36.5101 0003343 268.3761  91.7052 15.69926196  4113,6737.245,91.724,361.362,356.858,0.0
55412.0,STARLINK-5033,PAYLOAD,2023-02-19 19:08:35,15.69915962,0.0003462,69.9988,35.9728,274.1595,85.9205,0.0002963,0.00035554,0.0,0 STARLINK-5033,1 55412U 23014X   23050.79762952  .00035554  00000-0  29630-3 0  9999,2 55412  69.9988  35.9728 0003462 274.1595  85.9205 15.69915962  3207,6737.274,91.725,361.472,356.807,0.0
55412.0,STARLINK-5033,PAYLOAD,2023-02-20 10:26:06,15.69927533,0.0003363,69.9987,34.1808,266.0895,93.9917,0.00026701,0.0003202,0.0,0 STARLINK-5033,1 55412U 23014X   23051.43479508  .00032020  00000-0  26701-3 0  9994,2 55412  69.9987  34.1808 0003363 266.0895  93.9917 15.69927533  3306,6737.241,91.724,361.372,356.841,0.0
55412.0,STARLINK-5033,PAYLOAD,2023-02-20 13:29:36,15.69931169,0.0003388,69.9988,33.8225,267.9822,92.0986,0.00043769,0.00052763,0.0,0 STARLINK-5033,1 55412U 23014X   23051.56222828  .00052763  00000-0  43769-3 0  9998,2 55412  69.9988  33.8225 0003388 267.9822  92.0986 15.69931169  4265,6737.231,91.724,361.378,356.813,0.0
55412.0,STARLINK-5033,PAYLOAD,2023-02-21 01:43:37,15.69948645,0.0003415,69.9987,32.3896,266.7987,93.2818,0.00024896,0.0002986,0.0,0 STARLINK-5033,1 55412U 23014X   23052.07195880  .00029860  00000-0  24896-3 0  9994,2 55412  69.9987  32.3896 0003415 266.7987  93.2818 15.69948645  3401,6737.181,91.723,361.347,356.745,0.0
55412.0,STARLINK-5033,PAYLOAD,2023-02-21 07:50:14,15.71690566,0.0010656,69.999,31.6715,246.9792,113.0281,0.0086695,0.012516,0.0,0 STARLINK-5033,1 55412U 23014X   23052.32655250  .01251600  00000-0  86695-2 0  9998,2 55412  69.9990  31.6715 0010656 246.9792 113.0281 15.71690566  3444,6732.202,91.621,361.241,346.893,0.0
55412.0,STARLINK-5033,PAYLOAD,2023-02-21 22:00:00,15.69952718,0.000326,69.9994,30.0143,275.7255,177.01,-0.00027379,-0.00033043,0.0,0 STARLINK-5033,1 55412U 23014X   23052.91667824 -.00033043  00000-0 -27379-3 0  9998,2 55412  69.9994  30.0143 0003260 275.7255 177.0100 15.69952718  3530,6737.169,91.723,361.231,356.838,0.0
55412.0,STARLINK-5033,PAYLOAD,2023-02-22 00:00:00,15.69978313,0.000332,69.9994,29.78,276.8565,286.7122,-0.00084563,-0.00100907,0.0,0 STARLINK-5033,1 55412U 23014X   23053.00001157 -.00100907  00000-0 -84563-3 0  9992,2 55412  69.9994  29.7800 0003320 276.8565 286.7122 15.69978313  1302,6737.096,91.721,361.198,356.724,0.0
55412.0,STARLINK-5033,PAYLOAD,2023-02-22 02:11:39,15.69958418,0.0003343,69.9991,29.5225,275.4566,84.6248,0.00055762,0.00067473,0.0,0 STARLINK-5033,1 55412U 23014X   23053.09142578  .00067473  00000-0  55762-3 0  9991,2 55412  69.9991  29.5225 0003343 275.4566  84.6248 15.69958418  3567,6737.153,91.722,361.27,356.766,0.0
55412.0,STARLINK-5033,PAYLOAD,2023-02-22 09:50:25,15.69913686,0.0003369,69.9994,28.6265,284.3806,75.7016,0.00028892,0.00034656,0.0,0 STARLINK-5033,1 55412U 23014X   23053.41001511  .00034656  00000-0  28892-3 0  9999,2 55412  69.9994  28.6265 0003369 284.3806  75.7016 15.69913686  3616,6737.281,91.725,361.416,356.876,0.0
55412.0,STARLINK-5033,PAYLOAD,2023-02-22 15:57:25,15.69921479,0.0003561,69.9993,27.9101,280.7235,79.3559,0.00063474,0.00076805,0.0,0 STARLINK-5033,1 55412U 23014X   23053.66488202  .00076805  00000-0  63474-3 0  9999,2 55412  69.9993  27.9101 0003561 280.7235  79.3559 15.69921479  4595,6737.259,91.724,361.523,356.725,0.0
55412.0,STARLINK-5033,PAYLOAD,2023-02-23 04:11:26,15.69954456,0.0003502,69.9993,26.4775,279.5243,80.5557,0.0003447,0.00041493,0.0,0 STARLINK-5033,1 55412U 23014X   23054.17461222  .00041493  00000-0  34470-3 0  9998,2 55412  69.9993  26.4775 0003502 279.5243  80.5557 15.69954456  3734,6737.164,91.722,361.389,356.67,0.0
55412.0,STARLINK-5033,PAYLOAD,2023-02-23 07:14:56,15.69956161,0.0003821,69.9994,26.1188,276.4822,83.5939,0.00030757,0.00036985,0.0,0 STARLINK-5033,1 55412U 23014X   23054.30204371  .00036985  00000-0  30757-3 0  9997,2 55412  69.9994  26.1188 0003821 276.4822  83.5939 15.69956161  4691,6737.159,91.722,361.599,356.45,0.0
55412.0,STARLINK-5033,PAYLOAD,2023-02-23 21:00:42,15.69952546,0.0002884,70.0,24.5069,281.6432,78.4439,0.0002044,0.00024463,0.0,0 STARLINK-5033,1 55412U 23014X   23054.87549316  .00024463  00000-0  20440-3 0  9996,2 55412  70.0000  24.5069 0002884 281.6432  78.4439 15.69952546  3842,6737.17,91.723,360.978,357.092,0.0
55412.0,STARLINK-5033,PAYLOAD,2023-02-24 01:35:57,15.69929325,0.0003374,69.9991,23.9686,268.1761,91.9048,0.00013319,0.00015836,0.0,0 STARLINK-5033,1 55412U 23014X   23055.06664121  .00015836  00000-0  13319-3 0  9991,2 55412  69.9991  23.9686 0003374 268.1761  91.9048 15.69929325  3874,6737.236,91.724,361.374,356.828,0.0
55412.0,STARLINK-5033,PAYLOAD,2023-02-24 07:42:58,15.69936321,0.0003776,69.9993,23.2527,272.2793,87.797,0.00038087,0.00045861,0.0,0 STARLINK-5033,1 55412U 23014X   23055.32151158  .00045861  00000-0  38087-3 0  9991,2 55412  69.9993  23.2527 0003776 272.2793  87.7970 15.69936321  4850,6737.216,91.723,361.625,356.537,0.0
55412.0,STARLINK-5033,PAYLOAD,2023-02-25 00:32:15,15.69929073,0.0003274,69.9997,21.2823,274.306,85.7761,0.0002331,0.00027914,0.0,0 STARLINK-5033,1 55412U 23014X   23056.02240325  .00027914  00000-0  23310-3 0  9996,2 55412  69.9997  21.2823 0003274 274.3060  85.7761 15.69929073  4025,6737.237,91.724,361.308,356.896,0.0
55412.0,STARLINK-5033,PAYLOAD,2023-02-25 05:07:31,15.69935972,0.0002579,70.0008,20.7443,288.5425,71.549,0.00018625,0.0002225,0.0,0 STARLINK-5033,1 55412U 23014X   23056.21355386  .00022250  00000-0  18625-3 0  9992,2 55412  70.0008  20.7443 0002579 288.5425  71.5490 15.69935972  4995,6737.217,91.723,360.82,357.345,0.0
55412.0,STARLINK-5033,PAYLOAD,2023-02-26 01:00:17,15.69936635,0.0002816,70.0005,18.4162,245.9172,114.173,4.4223e-05,5.11e-05,0.0,0 STARLINK-5033,1 55412U 23014X   23057.04186529  .00005110  00000-0  44223-4 0  9995,2 55412  70.0005  18.4162 0002816 245.9172 114.1730 15.69936635  4183,6737.215,91.723,360.977,357.183,0.0
55412.0,STARLINK-5033,PAYLOAD,2023-02-26 08:39:02,15.69932424,0.0002737,69.9984,17.5193,277.8337,82.2548,5.7073e-05,6.657e-05,0.0,0 STARLINK-5033,1 55412U 23014X   23057.36045073  .00006657  00000-0  57073-4 0  9992,2 55412  69.9984  17.5193 0002737 277.8337  82.2548 15.69932424  4239,6737.227,91.724,360.936,357.248,0.0
55412.0,STARLINK-5033,PAYLOAD,2023-02-26 20:53:03,15.6993341,0.0002385,69.9992,16.0866,273.4452,86.6471,4.1103e-05,4.734e-05,0.0,0 STARLINK-5033,1 55412U 23014X   23057.87018288  .00004734  00000-0  41103-4 0  9997,2 55412  69.9992  16.0866 0002385 273.4452  86.6471 15.69933410  5250,6737.225,91.724,360.696,357.483,0.0
55412.0,STARLINK-5033,PAYLOAD,2023-02-27 04:31:49,15.69939726,0.0002823,70.0009,15.193,259.1557,100.9321,0.00011648,0.00013824,0.0,0 STARLINK-5033,1 55412U 23014X   23058.18876349  .00013824  00000-0  11648-3 0  9992,2 55412  70.0009  15.1930 0002823 259.1557 100.9321 15.69939726  5304,6737.206,91.723,360.973,357.17,0.0
